NORAD_CAT_ID,OBJECT_NAME,OBJECT_TYPE,EPOCH,MEAN_MOTION,ECCENTRICITY,INCLINATION,RA_OF_ASC_NODE,ARG_OF_PERICENTER,MEAN_ANOMALY,BSTAR,MEAN_MOTION_DOT,MEAN_MOTION_DDOT,TLE_LINE0,TLE_LINE1,TLE_LINE2,SEMIMAJOR_AXIS,PERIOD,APOGEE,PERIGEE,DECAYED
52632.0,STARLINK-3995,PAYLOAD,2023-11-30 11:11:21,15.08843664,0.0001593,53.2183,36.1408,68.5711,291.5451,0.00022864,3.353e-05,0.0,0 STARLINK-3995,1 52632U 22052AL  23334.46621937  .00003353  00000-0  22864-3 0  9991,2 52632  53.2183  36.1408 0001593  68.5711 291.5451 15.08843664 86039,6917.869,95.437,540.836,538.632,0.0
52632.0,STARLINK-3995,PAYLOAD,2023-11-30 23:54:25,15.08882404,0.0002553,53.2181,33.7646,143.6164,216.5002,0.001011,0.00015858,0.0,0 STARLINK-3995,1 52632U 22052AL  23334.99612508  .00015858  00000-0  10110-2 0  9996,2 52632  53.2181  33.7646 0002553 143.6164 216.5002 15.08882404 86111,6917.751,95.435,541.382,537.85,0.0
52632.0,STARLINK-3995,PAYLOAD,2023-12-01 09:26:46,15.08822917,0.0002789,53.2183,31.9803,145.2311,214.8864,-3.5907e-05,-8.6e-06,0.0,0 STARLINK-3995,1 52632U 22052AL  23335.39359370 -.00000860  00000-0 -35907-4 0  9998,2 52632  53.2183  31.9803 0002789 145.2311 214.8864 15.08822917 86177,6917.933,95.439,541.727,537.868,0.0
52632.0,STARLINK-3995,PAYLOAD,2023-12-02 09:17:31,15.08877323,0.0001888,53.2182,27.5187,114.7083,245.4106,0.00036355,5.508e-05,0.0,0 STARLINK-3995,1 52632U 22052AL  23336.38716568  .00005508  00000-0  36355-3 0  9993,2 52632  53.2182  27.5187 0001888 114.7083 245.4106 15.08877323 86325,6917.766,95.435,540.937,538.325,0.0
52632.0,STARLINK-3995,PAYLOAD,2023-12-02 12:28:17,15.08877714,0.0001461,53.218,26.9227,93.4537,266.6622,0.00055817,8.616e-05,0.0,0 STARLINK-3995,1 52632U 22052AL  23336.51964236  .00008616  00000-0  55817-3 0  9992,2 52632  53.2180  26.9227 0001461  93.4537 266.6622 15.08877714 85977,6917.765,95.435,540.641,538.619,0.0
52632.0,STARLINK-3995,PAYLOAD,2023-12-02 23:36:01,15.08818108,0.0001392,53.2174,24.8426,107.694,252.4205,-0.00029376,-4.957e-05,0.0,0 STARLINK-3995,1 52632U 22052AL  23336.98335326 -.00004957  00000-0 -29376-3 0  9992,2 52632  53.2174  24.8426 0001392 107.6940 252.4205 15.08818108 86419,6917.947,95.439,540.775,538.849,0.0
52632.0,STARLINK-3995,PAYLOAD,2023-12-03 12:19:07,15.08791589,0.0001538,53.2167,22.4626,106.9125,253.2036,-0.0005002,-8.229e-05,0.0,0 STARLINK-3995,1 52632U 22052AL  23337.51328137 -.00008229  00000-0 -50020-3 0  9990,2 52632  53.2167  22.4626 0001538 106.9125 253.2036 15.08791589 86128,6918.028,95.441,540.957,538.829,0.0
52632.0,STARLINK-3995,PAYLOAD,2023-12-04 02:37:37,15.08827293,0.0001336,53.2162,19.7856,102.683,257.4312,0.0019282,0.00030522,0.0,0 STARLINK-3995,1 52632U 22052AL  23338.10945628  .00030522  00000-0  19282-2 0  9999,2 52632  53.2162  19.7856 0001336 102.6830 257.4312 15.08827293 86584,6917.919,95.438,540.708,538.86,0.0
52632.0,STARLINK-3995,PAYLOAD,2023-12-04 10:34:32,15.08859236,0.0001491,53.2167,18.3004,104.3831,255.7327,0.0022126,0.0003512,0.0,0 STARLINK-3995,1 52632U 22052AL  23338.44065363  .00035120  00000-0  22126-2 0  9995,2 52632  53.2167  18.3004 0001491 104.3831 255.7327 15.08859236 86636,6917.822,95.436,540.718,538.655,0.0
52632.0,STARLINK-3995,PAYLOAD,2023-12-05 02:28:23,15.08869879,0.0001731,53.2169,15.3277,106.9907,253.1275,0.0011746,0.0001847,0.0,0 STARLINK-3995,1 52632U 22052AL  23339.10304641  .00018470  00000-0  11746-2 0  9999,2 52632  53.2169  15.3277 0001731 106.9907 253.1275 15.08869879 86735,6917.789,95.436,540.852,538.457,0.0
52632.0,STARLINK-3995,PAYLOAD,2023-12-05 08:49:55,15.08875972,0.0001587,53.2169,14.1384,97.8816,262.2356,0.0014313,0.00022587,0.0,0 STARLINK-3995,1 52632U 22052AL  23339.36800262  .00022587  00000-0  14313-2 0  9994,2 52632  53.2169  14.1384 0001587  97.8816 262.2356 15.08875972 86403,6917.77,95.435,540.733,538.538,0.0
52632.0,STARLINK-3995,PAYLOAD,2023-12-06 02:19:09,15.08859939,0.0001739,53.217,10.867,94.971,265.148,0.00083011,0.00012955,0.0,0 STARLINK-3995,1 52632U 22052AL  23340.09663832  .00012955  00000-0  83011-3 0  9996,2 52632  53.2170  10.8670 0001739  94.9710 265.1480 15.08859939 86883,6917.819,95.436,540.887,538.481,0.0
52632.0,STARLINK-3995,PAYLOAD,2023-12-06 08:40:41,15.08854137,0.0001688,53.217,9.6765,105.5024,254.6155,0.00012404,1.687e-05,0.0,0 STARLINK-3995,1 52632U 22052AL  23340.36159628  .00001687  00000-0  12404-3 0  9997,2 52632  53.2170   9.6765 0001688 105.5024 254.6155 15.08854137 86926,6917.837,95.437,540.87,538.534,0.0
52632.0,STARLINK-3995,PAYLOAD,2023-12-07 11:42:15,15.08848306,0.0001725,53.218,4.6191,107.1178,253.0003,-0.00010652,-1.983e-05,0.0,0 STARLINK-3995,1 52632U 22052AL  23341.48767820 -.00001983  00000-0 -10652-3 0  9994,2 52632  53.2180   4.6191 0001725 107.1178 253.0003 15.08848306 87090,6917.855,95.437,540.913,538.527,0.0
52632.0,STARLINK-3995,PAYLOAD,2023-12-08 02:00:43,15.08838743,0.0001611,53.2179,1.943,101.6535,258.4638,1.9961e-05,3e-07,0.0,0 STARLINK-3995,1 52632U 22052AL  23342.08384022  .00000030  00000-0  19961-4 0  9993,2 52632  53.2179   1.9430 0001611 101.6535 258.4638 15.08838743 87181,6917.884,95.438,540.864,538.635,0.0
52632.0,STARLINK-3995,PAYLOAD,2023-12-08 11:33:02,15.0884473,0.000174,53.2185,0.1578,113.554,246.5635,5.1965e-05,5.39e-06,0.0,0 STARLINK-3995,1 52632U 22052AL  23342.48127406  .00000539  00000-0  51965-4 0  9992,2 52632  53.2185   0.1578 0001740 113.5540 246.5635 15.08844730 87248,6917.866,95.437,540.935,538.527,0.0
52632.0,STARLINK-3995,PAYLOAD,2023-12-09 06:37:39,15.0884549,0.0001603,53.2184,356.5885,104.648,255.469,0.00013749,1.901e-05,0.0,0 STARLINK-3995,1 52632U 22052AL  23343.27615064  .00001901  00000-0  13749-3 0  9993,2 52632  53.2184 356.5885 0001603 104.6480 255.4690 15.08845490 86993,6917.864,95.437,540.838,538.62,0.0
52632.0,STARLINK-3995,PAYLOAD,2023-12-10 00:06:54,15.08832454,0.0001305,53.2182,353.3269,59.8036,300.3085,8.929e-05,1.133e-05,0.0,0 STARLINK-3995,1 52632U 22052AL  23344.00480166  .00001133  00000-0  89290-4 0  9990,2 52632  53.2182 353.3269 0001305  59.8036 300.3085 15.08832454 87477,6917.903,95.438,540.671,538.866,0.0
52632.0,STARLINK-3995,PAYLOAD,2023-12-11 04:43:51,15.08849572,0.000189,53.2183,347.9689,105.3148,254.8053,-0.00022565,-3.879e-05,0.0,0 STARLINK-3995,1 52632U 22052AL  23345.19712323 -.00003879  00000-0 -22565-3 0  9996,2 52632  53.2183 347.9689 0001890 105.3148 254.8053 15.08849572 87650,6917.851,95.437,541.024,538.409,0.0
52632.0,STARLINK-3995,PAYLOAD,2023-12-11 07:54:37,15.08842044,0.0001693,53.2178,347.3723,83.1101,277.0084,-4.7117e-06,-3.63e-06,0.0,0 STARLINK-3995,1 52632U 22052AL  23345.32960307 -.00000363  00000-0 -47117-5 0  9995,2 52632  53.2178 347.3723 0001693  83.1101 277.0084 15.08842044 87300,6917.874,95.437,540.91,538.568,0.0
52632.0,STARLINK-3995,PAYLOAD,2023-12-12 07:45:24,15.08838115,0.0001671,53.2187,342.9136,69.5986,290.5186,0.00012373,1.682e-05,0.0,0 STARLINK-3995,1 52632U 22052AL  23346.32320601  .00001682  00000-0  12373-3 0  9990,2 52632  53.2187 342.9136 0001671  69.5986 290.5186 15.08838115 87828,6917.886,95.438,540.907,538.595,0.0
52632.0,STARLINK-3995,PAYLOAD,2023-12-13 06:00:48,15.08845131,0.0001749,53.2187,338.7494,68.3215,291.7963,7.7719e-05,9.49e-06,0.0,0 STARLINK-3995,1 52632U 22052AL  23347.25056328  .00000949  00000-0  77719-4 0  9996,2 52632  53.2187 338.7494 0001749  68.3215 291.7963 15.08845131 87592,6917.865,95.437,540.94,538.52,0.0
52632.0,STARLINK-3995,PAYLOAD,2023-12-14 04:16:12,15.08839614,0.0001539,53.2179,334.5857,77.4814,282.6351,6.705e-06,-1.81e-06,0.0,0 STARLINK-3995,1 52632U 22052AL  23348.17792741 -.00000181  00000-0  67050-5 0  9991,2 52632  53.2179 334.5857 0001539  77.4814 282.6351 15.08839614 88100,6917.882,95.438,540.811,538.682,0.0
52632.0,STARLINK-3995,PAYLOAD,2023-12-14 05:51:35,15.08840847,0.0001563,53.2181,334.2873,76.6902,283.4264,1.6282e-05,-2.9e-07,0.0,0 STARLINK-3995,1 52632U 22052AL  23348.24416649 -.00000029  00000-0  16282-4 0  9990,2 52632  53.2181 334.2873 0001563  76.6902 283.4264 15.08840847 87745,6917.878,95.438,540.824,538.662,0.0
52632.0,STARLINK-3995,PAYLOAD,2023-12-15 04:06:59,15.08845318,0.0001549,53.2189,330.1254,80.4395,279.6772,-1.6877e-05,-5.57e-06,0.0,0 STARLINK-3995,1 52632U 22052AL  23349.17152378 -.00000557  00000-0 -16877-4 0  9996,2 52632  53.2189 330.1254 0001549  80.4395 279.6772 15.08845318 87888,6917.864,95.437,540.801,538.658,0.0
52632.0,STARLINK-3995,PAYLOAD,2023-12-15 12:03:56,15.0882977,0.0001505,53.2182,328.6382,86.6508,273.4656,-3.8676e-05,-9.03e-06,0.0,0 STARLINK-3995,1 52632U 22052AL  23349.50273151 -.00000903  00000-0 -38676-4 0  9992,2 52632  53.2182 328.6382 0001505  86.6508 273.4656 15.08829770 87934,6917.912,95.438,540.818,538.736,0.0
52632.0,STARLINK-3995,PAYLOAD,2023-12-16 03:57:47,15.08830438,0.0001518,53.2186,325.6677,90.0853,270.0313,-4.5987e-05,-1.02e-05,0.0,0 STARLINK-3995,1 52632U 22052AL  23350.16513570 -.00001020  00000-0 -45987-4 0  9992,2 52632  53.2186 325.6677 0001518  90.0853 270.0313 15.08830438 88407,6917.91,95.438,540.825,538.724,0.0
52632.0,STARLINK-3995,PAYLOAD,2023-12-16 05:33:10,15.0883284,0.000153,53.2184,325.3682,95.3539,264.7627,-2.4581e-05,-6.79e-06,0.0,0 STARLINK-3995,1 52632U 22052AL  23350.23137360 -.00000679  00000-0 -24581-4 0  9995,2 52632  53.2184 325.3682 0001530  95.3539 264.7627 15.08832840 88048,6917.902,95.438,540.826,538.709,0.0
52632.0,STARLINK-3995,PAYLOAD,2023-12-16 10:19:19,15.08842634,0.000146,53.2188,324.4768,80.2271,279.8886,6.6103e-05,7.64e-06,0.0,0 STARLINK-3995,1 52632U 22052AL  23350.43008626  .00000764  00000-0  66103-4 0  9998,2 52632  53.2188 324.4768 0001460  80.2271 279.8886 15.08842634 88445,6917.872,95.437,540.747,538.727,0.0
52632.0,STARLINK-3995,PAYLOAD,2023-12-17 03:48:34,15.08842032,0.0001408,53.217,321.2082,103.7656,256.3493,-1.0241e-05,-4.51e-06,0.0,0 STARLINK-3995,1 52632U 22052AL  23351.15873066 -.00000451  00000-0 -10241-4 0  9993,2 52632  53.2170 321.2082 0001408 103.7656 256.3493 15.08842032 88558,6917.874,95.437,540.713,538.765,0.0
